ELYSIUM STAR 2 & LFF    
1 43760U 18099C   24246.77574025  .00108943  00000+0  30298-2 0  9990
2 43760  97.5084 315.2739 0003290 343.4939  16.6197 15.36408458315108
